{"type": "FeatureCollection", "features": [ {"type": "Feature", "properties": {"norad_id": 44542, "name": "BEIDOU-3 M24 (C46)", "group": "beidou", "lat": -45.64550982587772, "lon": 141.71461480601516, "alt_km": 21531.76204813549, "timestamp": "2025-12-17T15:50:10.045023+00:00", "meta": {"OBJECT_NAME": "BEIDOU-3 M24 (C46)", "OBJECT_ID": "2019-061A", "EPOCH": "2025-12-16T03:22:44.327712", "MEAN_MOTION": 1.86229353, "ECCENTRICITY": 0.00096014, "INCLINATION": 54.4001, "RA_OF_ASC_NODE": 188.9011, "ARG_OF_PERICENTER": 24.8001, "MEAN_ANOMALY": 335.316, "EPHEMERIS_TYPE": 0, "CLASSIFICATION_TYPE": "U", "NORAD_CAT_ID": 44542, "ELEMENT_SET_NO": 999, "REV_AT_EPOCH": 4238, "BSTAR": 0, "MEAN_MOTION_DOT": 1.15e-06, "MEAN_MOTION_DDOT": 0}, "tle": {"line1": "1 44542U 19061A   25350.14079083  .00000115  00000+0  00000+0 0  9998", "line2": "2 44542  54.4001 188.9011 0009601  24.8001 335.3160  1.86229353 42381"}}, "geometry": {"type": "Point", "coordinates": [141.71461480601516, -45.64550982587772]}}, {"type": "Feature", "properties": {"norad_id": 44543, "name": "BEIDOU-3 M23 (C45)", "group": "beidou", "lat": -24.94824215073428, "lon": 28.302140170777694, "alt_km": 21548.559482775043, "timestamp": "2025-12-17T15:50:10.045035+00:00", "meta": {"OBJECT_NAME": "BEIDOU-3 M23 (C45)", "OBJECT_ID": "2019-061B", "EPOCH": "2025-12-16T19:20:04.225344", "MEAN_MOTION": 1.86227685, "ECCENTRICITY": 0.00060954, "INCLINATION": 54.399, "RA_OF_ASC_NODE": 188.847, "ARG_OF_PERICENTER": 24.4715, "MEAN_ANOMALY": 334.1063, "EPHEMERIS_TYPE": 0, "CLASSIFICATION_TYPE": "U", "NORAD_CAT_ID": 44543, "ELEMENT_SET_NO": 999, "REV_AT_EPOCH": 4239, "BSTAR": 0, "MEAN_MOTION_DOT": 1.15e-06, "MEAN_MOTION_DDOT": 0}, "tle": {"line1": "1 44543U 19061B   25350.80560446  .00000115  00000+0  00000+0 0  9990", "line2": "2 44543  54.3990 188.8470 0006095  24.4715 334.1063  1.86227685 42394"}}, "geometry": {"type": "Point", "coordinates": [28.302140170777694, -24.94824215073428]}}, {"type": "Feature", "properties": {"norad_id": 44709, "name": "BEIDOU-3 IGSO-3 (C40)", "group": "beidou", "lat": 21.37976131827326, "lon": 87.01415984467691, "alt_km": 35643.350229536234, "timestamp": "2025-12-17T15:50:10.045046+00:00", "meta": {"OBJECT_NAME": "BEIDOU-3 IGSO-3 (C40)", "OBJECT_ID": "2019-073A", "EPOCH": "2025-11-20T07:11:22.740000", "MEAN_MOTION": 1.00250097, "ECCENTRICITY": 0.0044538, "INCLINATION": 55.163, "RA_OF_ASC_NODE": 283.159, "ARG_OF_PERICENTER": 191.5856, "MEAN_ANOMALY": 168.2409, "EPHEMERIS_TYPE": 0, "CLASSIFICATION_TYPE": "U", "NORAD_CAT_ID": 44709, "ELEMENT_SET_NO": 999, "REV_AT_EPOCH": 2236, "BSTAR": 0, "MEAN_MOTION_DOT": -2.06e-06, "MEAN_MOTION_DDOT": 0}, "tle": {"line1": "1 44709U 19073A   25324.29956875 -.00000206  00000+0  00000+0 0  9998", "line2": "2 44709  55.1630 283.1590 0044538 191.5856 168.2409  1.00250097 22360"}}, "geometry": {"type": "Point", "coordinates": [87.01415984467691, 21.37976131827326]}}, {"type": "Feature", "properties": {"norad_id": 44793, "name": "BEIDOU-3 M22 (C44)", "group": "beidou", "lat": 35.49308387936762, "lon": -22.74376751480417, "alt_km": 21508.62717059748, "timestamp": "2025-12-17T15:50:10.045062+00:00", "meta": {"OBJECT_NAME": "BEIDOU-3 M22 (C44)", "OBJECT_ID": "2019-078A", "EPOCH": "2025-12-17T01:18:45.560736", "MEAN_MOTION": 1.86231936, "ECCENTRICITY": 0.00058159, "INCLINATION": 54.1041, "RA_OF_ASC_NODE": 306.2341, "ARG_OF_PERICENTER": 23.4799, "MEAN_ANOMALY": 336.5334, "EPHEMERIS_TYPE": 0, "CLASSIFICATION_TYPE": "U", "NORAD_CAT_ID": 44793, "ELEMENT_SET_NO": 999, "REV_AT_EPOCH": 4125, "BSTAR": 0, "MEAN_MOTION_DOT": -9.2e-07, "MEAN_MOTION_DDOT": 0}, "tle": {"line1": "1 44793U 19078A   25351.05469399 -.00000092  00000+0  00000+0 0  9993", "line2": "2 44793  54.1041 306.2341 0005815  23.4799 336.5334  1.86231936 41254"}}, "geometry": {"type": "Point", "coordinates": [-22.74376751480417, 35.49308387936762]}}, {"type": "Feature", "properties": {"norad_id": 44794, "name": "BEIDOU-3 M21 (C43)", "group": "beidou", "lat": -36.099832716828374, "lon": -85.73003989950325, "alt_km": 21526.78048185255, "timestamp": "2025-12-17T15:50:10.045073+00:00", "meta": {"OBJECT_NAME": "BEIDOU-3 M21 (C43)", "OBJECT_ID": "2019-078B", "EPOCH": "2025-12-16T15:43:55.727904", "MEAN_MOTION": 1.86227668, "ECCENTRICITY": 0.00041169, "INCLINATION": 54.078, "RA_OF_ASC_NODE": 306.2132, "ARG_OF_PERICENTER": 11.942, "MEAN_ANOMALY": 348.0544, "EPHEMERIS_TYPE": 0, "CLASSIFICATION_TYPE": "U", "NORAD_CAT_ID": 44794, "ELEMENT_SET_NO": 999, "REV_AT_EPOCH": 4125, "BSTAR": 0, "MEAN_MOTION_DOT": -9.5e-07, "MEAN_MOTION_DDOT": 0}, "tle": {"line1": "1 44794U 19078B   25350.65550611 -.00000095  00000+0  00000+0 0  9990", "line2": "2 44794  54.0780 306.2132 0004116  11.9420 348.0544  1.86227668 41256"}}, "geometry": {"type": "Point", "coordinates": [-85.73003989950325, -36.099832716828374]}}, {"type": "Feature", "properties": {"norad_id": 44864, "name": "BEIDOU-3 M19 (C41)", "group": "beidou", "lat": 25.389207323459715, "lon": -129.55510639376186, "alt_km": 21561.048024729735, "timestamp": "2025-12-17T15:50:10.045084+00:00", "meta": {"OBJECT_NAME": "BEIDOU-3 M19 (C41)", "OBJECT_ID": "2019-090A", "EPOCH": "2025-12-14T04:04:53.318784", "MEAN_MOTION": 1.86231555, "ECCENTRICITY": 0.00179181, "INCLINATION": 56.3949, "RA_OF_ASC_NODE": 68.9134, "ARG_OF_PERICENTER": 285.3736, "MEAN_ANOMALY": 44.0547, "EPHEMERIS_TYPE": 0, "CLASSIFICATION_TYPE": "U", "NORAD_CAT_ID": 44864, "ELEMENT_SET_NO": 999, "REV_AT_EPOCH": 4078, "BSTAR": 0, "MEAN_MOTION_DOT": -8.2e-07, "MEAN_MOTION_DDOT": 0}, "tle": {"line1": "1 44864U 19090A   25348.17006156 -.00000082  00000+0  00000+0 0  9992", "line2": "2 44864  56.3949  68.9134 0017918 285.3736  44.0547  1.86231555 40784"}}, "geometry": {"type": "Point", "coordinates": [-129.55510639376186, 25.389207323459715]}}, {"type": "Feature", "properties": {"norad_id": 44865, "name": "BEIDOU-3 M20 (C42)", "group": "beidou", "lat": -45.34296230201626, "lon": -68.949136328668, "alt_km": 21511.567695005262, "timestamp": "2025-12-17T15:50:10.045096+00:00", "meta": {"OBJECT_NAME": "BEIDOU-3 M20 (C42)", "OBJECT_ID": "2019-090B", "EPOCH": "2025-12-14T14:16:43.218624", "MEAN_MOTION": 1.86231589, "ECCENTRICITY": 0.00151163, "INCLINATION": 56.3967, "RA_OF_ASC_NODE": 68.9336, "ARG_OF_PERICENTER": 297.6834, "MEAN_ANOMALY": 46.2212, "EPHEMERIS_TYPE": 0, "CLASSIFICATION_TYPE": "U", "NORAD_CAT_ID": 44865, "ELEMENT_SET_NO": 999, "REV_AT_EPOCH": 4077, "BSTAR": 0, "MEAN_MOTION_DOT": -8.3e-07, "MEAN_MOTION_DDOT": 0}, "tle": {"line1": "1 44865U 19090B   25348.59494466 -.00000083  00000+0  00000+0 0  9995", "line2": "2 44865  56.3967  68.9336 0015116 297.6834  46.2212  1.86231589 40771"}}, "geometry": {"type": "Point", "coordinates": [-68.949136328668, -45.34296230201626]}}, {"type": "Feature", "properties": {"norad_id": 45344, "name": "BEIDOU-3 G2 (C60)", "group": "beidou", "lat": 0.030894791267185362, "lon": 44.16935065955177, "alt_km": 35785.29061415495, "timestamp": "2025-12-17T15:50:10.045107+00:00", "meta": {"OBJECT_NAME": "BEIDOU-3 G2 (C60)", "OBJECT_ID": "2020-017A", "EPOCH": "2025-12-17T01:43:19.070400", "MEAN_MOTION": 1.00273108, "ECCENTRICITY": 0.00043554, "INCLINATION": 2.5054, "RA_OF_ASC_NODE": 43.9467, "ARG_OF_PERICENTER": 271.8341, "MEAN_ANOMALY": 236.0547, "EPHEMERIS_TYPE": 0, "CLASSIFICATION_TYPE": "U", "NORAD_CAT_ID": 45344, "ELEMENT_SET_NO": 999, "REV_AT_EPOCH": 2143, "BSTAR": 0, "MEAN_MOTION_DOT": -1.19e-06, "MEAN_MOTION_DDOT": 0}, "tle": {"line1": "1 45344U 20017A   25351.07174850 -.00000119  00000+0  00000+0 0  9998", "line2": "2 45344   2.5054  43.9467 0004355 271.8341 236.0547  1.00273108 21433"}}, "geometry": {"type": "Point", "coordinates": [44.16935065955177, 0.030894791267185362]}}, {"type": "Feature", "properties": {"norad_id": 45807, "name": "BEIDOU-3 G3 (C61)", "group": "beidou", "lat": 0.30745672304117677, "lon": 74.70392971243524, "alt_km": 35772.21740426873, "timestamp": "2025-12-17T15:50:10.045119+00:00", "meta": {"OBJECT_NAME": "BEIDOU-3 G3 (C61)", "OBJECT_ID": "2020-040A", "EPOCH": "2025-12-17T07:00:14.827392", "MEAN_MOTION": 1.00272037, "ECCENTRICITY": 0.00063789, "INCLINATION": 2.002, "RA_OF_ASC_NODE": 66.6244, "ARG_OF_PERICENTER": 308.8404, "MEAN_ANOMALY": 286.3488, "EPHEMERIS_TYPE": 0, "CLASSIFICATION_TYPE": "U", "NORAD_CAT_ID": 45807, "ELEMENT_SET_NO": 999, "REV_AT_EPOCH": 2024, "BSTAR": 0, "MEAN_MOTION_DOT": -3.31e-06, "MEAN_MOTION_DDOT": 0}, "tle": {"line1": "1 45807U 20040A   25351.29183828 -.00000331  00000+0  00000+0 0  9993", "line2": "2 45807   2.0020  66.6244 0006378 308.8404 286.3488  1.00272037 20248"}}, "geometry": {"type": "Point", "coordinates": [74.70392971243524, 0.30745672304117677]}}, {"type": "Feature", "properties": {"norad_id": 56564, "name": "BEIDOU-3 G4 (C62)", "group": "beidou", "lat": -0.008759618543428296, "lon": 124.10079636033461, "alt_km": 35778.02624804494, "timestamp": "2025-12-17T15:50:10.045131+00:00", "meta": {"OBJECT_NAME": "BEIDOU-3 G4 (C62)", "OBJECT_ID": "2023-066A", "EPOCH": "2025-12-17T06:44:38.482944", "MEAN_MOTION": 1.00271742, "ECCENTRICITY": 0.00027703, "INCLINATION": 0.8052, "RA_OF_ASC_NODE": 302.4125, "ARG_OF_PERICENTER": 227.6484, "MEAN_ANOMALY": 177.3219, "EPHEMERIS_TYPE": 0, "CLASSIFICATION_TYPE": "U", "NORAD_CAT_ID": 56564, "ELEMENT_SET_NO": 999, "REV_AT_EPOCH": 957, "BSTAR": 0, "MEAN_MOTION_DOT": -8.5e-07, "MEAN_MOTION_DDOT": 0}, "tle": {"line1": "1 56564U 23066A   25351.28100096 -.00000085  00000+0  00000+0 0  9997", "line2": "2 56564   0.8052 302.4125 0002770 227.6484 177.3219  1.00271742  9574"}}, "geometry": {"type": "Point", "coordinates": [124.10079636033461, -0.008759618543428296]}}]}